$$SOE
2460147.500000000, A.D. 2023-Jul-22 00:00:00.0000, 2.173867013424772E+08, -4.241507228250248E+08, -6.378117787802613E+07,
2460154.500000000, A.D. 2023-Jul-29 00:00:00.0000, 2.261633980559259E+08, -4.186767051194705E+08, -6.508712074318519E+07,
2460161.500000000, A.D. 2023-Aug-05 00:00:00.0000, 2.348409532657391E+08, -4.130192257540840E+08, -6.636453999844232E+07,
2460168.500000000, A.D. 2023-Aug-12 00:00:00.0000, 2.434152022030805E+08, -4.071801310142323E+08, -6.761277385765818E+07,
2460175.500000000, A.D. 2023-Aug-19 00:00:00.0000, 2.518820081779830E+08, -4.011613799474111E+08, -6.883117197981933E+07,
2460182.500000000, A.D. 2023-Aug-26 00:00:00.0000, 2.602372661435407E+08, -3.949650441297707E+08, -7.001909610988933E+07,
2460189.500000000, A.D. 2023-Sep-02 00:00:00.0000, 2.684769062666013E+08, -3.885933073611040E+08, -7.117592072116677E+07,
2460196.500000000, A.D. 2023-Sep-09 00:00:00.0000, 2.765968975358470E+08, -3.820484653279399E+08, -7.230103366496629E+07,
2460203.500000000, A.D. 2023-Sep-16 00:00:00.0000, 2.845932515692645E+08, -3.753329252911655E+08, -7.339383684672812E+07,
2460210.500000000, A.D. 2023-Sep-23 00:00:00.0000, 2.924620270308836E+08, -3.684492055100487E+08, -7.445374694211839E+07,
2460217.500000000, A.D. 2023-Sep-30 00:00:00.0000, 3.001993343103928E+08, -3.613999332113543E+08, -7.548019602340643E+07,
2460224.500000000, A.D. 2023-Oct-07 00:00:00.0000, 3.078013381040074E+08, -3.541878416458114E+08, -7.647263192308682E+07,
2460231.500000000, A.D. 2023-Oct-14 00:00:00.0000, 3.152642589277781E+08, -3.468157695431883E+08, -7.743051869900487E+07,
2460238.500000000, A.D. 2023-Oct-21 00:00:00.0000, 3.225843767841697E+08, -3.392866613611495E+08, -7.835333736426984E+07,
2460245.500000000, A.D. 2023-Oct-28 00:00:00.0000, 3.297580355506214E+08, -3.316035660672615E+08, -7.924058656498024E+07,
2460252.500000000, A.D. 2023-Nov-04 00:00:00.0000, 3.367816468328337E+08, -3.237696352249842E+08, -8.009178315247761E+07,
2460259.500000000, A.D. 2023-Nov-11 00:00:00.0000, 3.436516934527960E+08, -3.157881209842652E+08, -8.090646271381281E+07,
2460266.500000000, A.D. 2023-Nov-18 00:00:00.0000, 3.503647327834619E+08, -3.076623740421677E+08, -8.168418008421527E+07,
2460273.500000000, A.D. 2023-Nov-25 00:00:00.0000, 3.569173999952822E+08, -2.993958415526339E+08, -8.242450984486857E+07,
2460280.500000000, A.D. 2023-Dec-02 00:00:00.0000, 3.633064112349896E+08, -2.909920649987214E+08, -8.312704680800930E+07,
2460287.500000000, A.D. 2023-Dec-09 00:00:00.0000, 3.695285668064194E+08, -2.824546780885385E+08, -8.379140649982330E+07,
2460294.500000000, A.D. 2023-Dec-16 00:00:00.0000, 3.755807546331064E+08, -2.737874046645516E+08, -8.441722566506268E+07,
2460301.500000000, A.D. 2023-Dec-23 00:00:00.0000, 3.814599543444433E+08, -2.649940559416635E+08, -8.500416276806772E+07,
2460308.500000000, A.D. 2023-Dec-30 00:00:00.0000, 3.871632406393610E+08, -2.560785260294553E+08, -8.555189828087650E+07,
2460315.500000000, A.D. 2024-Jan-06 00:00:00.0000, 3.926877841481231E+08, -2.470447881049002E+08, -8.606013478809744E+07,
2460322.500000000, A.D. 2024-Jan-13 00:00:00.0000, 3.980308529568424E+08, -2.378968930468197E+08, -8.652859734617698E+07,
2460329.500000000, A.D. 2024-Jan-20 00:00:00.0000, 4.031898160114263E+08, -2.286389674516104E+08, -8.695703395633969E+07,
2460336.500000000, A.D. 2024-Jan-27 00:00:00.0000, 4.081621463666232E+08, -2.192752103834666E+08, -8.734521591132471E+07,
2460343.500000000, A.D. 2024-Feb-03 00:00:00.0000, 4.129454238463021E+08, -2.098098898138718E+08, -8.769293805374359E+07,
2460350.500000000, A.D. 2024-Feb-10 00:00:00.0000, 4.175373373869309E+08, -2.002473390478597E+08, -8.800001899488890E+07,
2460357.500000000, A.D. 2024-Feb-17 00:00:00.0000, 4.219356871979321E+08, -1.905919531357564E+08, -8.826630130571719E+07,
2460364.500000000, A.D. 2024-Feb-24 00:00:00.0000, 4.261383867702894E+08, -1.808481852626148E+08, -8.849165168183106E+07,
2460371.500000000, A.D. 2024-Mar-02 00:00:00.0000, 4.301434647585290E+08, -1.710205431552980E+08, -8.867596108761629E+07,
2460378.500000000, A.D. 2024-Mar-09 00:00:00.0000, 4.339490668706441E+08, -1.611135855777423E+08, -8.881914489718202E+07,
2460385.500000000, A.D. 2024-Mar-16 00:00:00.0000, 4.375534581571562E+08, -1.511319187244751E+08, -8.892114305194059E+07,
2460392.500000000, A.D. 2024-Mar-23 00:00:00.0000, 4.409550255931317E+08, -1.410801914105784E+08, -8.898192013464829E+07,
2460399.500000000, A.D. 2024-Mar-30 00:00:00.0000, 4.441522787110962E+08, -1.309630890938096E+08, -8.900146515700677E+07,
2460406.500000000, A.D. 2024-Apr-06 00:00:00.0000, 4.471438485384071E+08, -1.207853301066889E+08, -8.897979135970157E+07,
2460413.500000000, A.D. 2024-Apr-13 00:00:00.0000, 4.499284883856845E+08, -1.105516632706046E+08, -8.891693628163874E+07,
2460420.500000000, A.D. 2024-Apr-20 00:00:00.0000, 4.525050755309568E+08, -1.002668642223352E+08, -8.881296179176819E+07,
2460427.500000000, A.D. 2024-Apr-27 00:00:00.0000, 4.548726122813002E+08, -8.993573102139835E+07, -8.866795399017830E+07,
2460434.500000000, A.D. 2024-May-04 00:00:00.0000, 4.570302265001336E+08, -7.956307974870789E+07, -8.848202304441220E+07,
2460441.500000000, A.D. 2024-May-11 00:00:00.0000, 4.589771718400611E+08, -6.915374020582333E+07, -8.825530299200426E+07,
2460448.500000000, A.D. 2024-May-18 00:00:00.0000, 4.607128277655567E+08, -5.871255170133255E+07, -8.798795151601312E+07,
2460455.500000000, A.D. 2024-May-25 00:00:00.0000, 4.622366993926314E+08, -4.824435894013444E+07, -8.768014969737351E+07,
2460462.500000000, A.D. 2024-Jun-01 00:00:00.0000, 4.635484172075030E+08, -3.775400808183154E+07, -8.733210175503100E+07,
2460469.500000000, A.D. 2024-Jun-08 00:00:00.0000, 4.646477369122097E+08, -2.724634299978089E+07, -8.694403479883868E+07,
2460476.500000000, A.D. 2024-Jun-15 00:00:00.0000, 4.655345397975933E+08, -1.672620120330346E+07, -8.651619858749230E+07,
2460483.500000000, A.D. 2024-Jun-22 00:00:00.0000, 4.662088326406766E+08, -6.198408253938060E+06, -8.604886510361850E+07,
2460490.500000000, A.D. 2024-Jun-29 00:00:00.0000, 4.666707450099003E+08, 4.332227496822875E+06, -8.554232790136385E+07,
2460497.500000000, A.D. 2024-Jul-06 00:00:00.0000, 4.669205266273778E+08, 1.486091736911638E+07, -8.499690167210826E+07,
2460504.500000000, A.D. 2024-Jul-13 00:00:00.0000, 4.669585467397903E+08, 2.538289483292321E+07, -8.441292197685835E+07,
2460511.500000000, A.D. 2024-Jul-20 00:00:00.0000, 4.667852935160294E+08, 3.589341914598490E+07, -8.379074487018143E+07,
2460518.500000000, A.D. 2024-Jul-27 00:00:00.0000, 4.664013728206108E+08, 4.638777918628682E+07, -8.313074643518159E+07,
2460525.500000000, A.D. 2024-Aug-03 00:00:00.0000, 4.658075066410452E+08, 5.686129709859461E+07, -8.243332228658155E+07,
2460532.500000000, A.D. 2024-Aug-10 00:00:00.0000, 4.650045313403365E+08, 6.730933174545385E+07, -8.169888705894473E+07,
2460539.500000000, A.D. 2024-Aug-17 00:00:00.0000, 4.639933957875683E+08, 7.772728197974993E+07, -8.092787388414374E+07,
2460546.500000000, A.D. 2024-Aug-24 00:00:00.0000, 4.627751594003990E+08, 8.811058971239707E+07, -8.012073386408387E+07,
2460553.500000000, A.D. 2024-Aug-31 00:00:00.0000, 4.613509902214124E+08, 9.845474270971371E+07, -7.927793555602472E+07,
2460560.500000000, A.D. 2024-Sep-07 00:00:00.0000, 4.597221633999717E+08, 1.087552772427607E+08, -7.839996449534965E+07,
2460567.500000000, A.D. 2024-Sep-14 00:00:00.0000, 4.578900601698405E+08, 1.190077815808049E+08, -7.748732268350156E+07,
2460574.500000000, A.D. 2024-Sep-21 00:00:00.0000, 4.558561652992663E+08, 1.292079007396571E+08, -7.654052782254912E+07,
2460581.500000000, A.D. 2024-Sep-28 00:00:00.0000, 4.536220625344192E+08, 1.393513392554335E+08, -7.556011251736628E+07,
2460588.500000000, A.D. 2024-Oct-05 00:00:00.0000, 4.511894317129864E+08, 1.494338619818025E+08, -7.454662378347816E+07,
2460595.500000000, A.D. 2024-Oct-12 00:00:00.0000, 4.485600471919956E+08, 1.594512958882404E+08, -7.350062258484343E+07,
2460602.500000000, A.D. 2024-Oct-19 00:00:00.0000, 4.457357758443411E+08, 1.693995325874792E+08, -7.242268326409367E+07,
2460609.500000000, A.D. 2024-Oct-26 00:00:00.0000, 4.427185745978167E+08, 1.792745307903098E+08, -7.131339292893617E+07,
2460616.500000000, A.D. 2024-Nov-02 00:00:00.0000, 4.395104877803850E+08, 1.890723185393688E+08, -7.017335083169883E+07,
2460623.500000000, A.D. 2024-Nov-09 00:00:00.0000, 4.361136443748710E+08, 1.987889952431246E+08, -6.900316775049312E+07,
2460630.500000000, A.D. 2024-Nov-16 00:00:00.0000, 4.325302552158505E+08, 2.084207335112173E+08, -6.780346537570053E+07,
2460637.500000000, A.D. 2024-Nov-23 00:00:00.0000, 4.287626101828029E+08, 2.179637807423517E+08, -6.657487571152556E+07,
2460644.500000000, A.D. 2024-Nov-30 00:00:00.0000, 4.248130756051758E+08, 2.274144604230719E+08, -6.531804051652957E+07,
2460651.500000000, A.D. 2024-Dec-07 00:00:00.0000, 4.206840923057352E+08, 2.367691735582301E+08, -6.403361078836322E+07,
2460658.500000000, A.D. 2024-Dec-14 00:00:00.0000, 4.163781735984546E+08, 2.460244014566948E+08, -6.272224613004844E+07,
2460665.500000000, A.D. 2024-Dec-21 00:00:00.0000, 4.118979009263492E+08, 2.551767086329595E+08, -6.138461388681245E+07,
2460672.500000000, A.D. 2024-Dec-28 00:00:00.0000, 4.072459191177634E+08, 2.642227428596851E+08, -6.002138847766675E+07,
2460679.500000000, A.D. 2025-Jan-04 00:00:00.0000, 4.024249338630915E+08, 2.731592347482947E+08, -5.863325096630062E+07,
2460686.500000000, A.D. 2025-Jan-11 00:00:00.0000, 3.974377095937304E+08, 2.819829985196685E+08, -5.722088856880226E+07,
2460693.500000000, A.D. 2025-Jan-18 00:00:00.0000, 3.922870668507575E+08, 2.906909330499767E+08, -5.578499408971252E+07,
2460700.500000000, A.D. 2025-Jan-25 00:00:00.0000, 3.869758793924669E+08, 2.992800227209081E+08, -5.432626534825284E+07,
2460707.500000000, A.D. 2025-Feb-01 00:00:00.0000, 3.815070712359410E+08, 3.077473380473554E+08, -5.284540461521508E+07,
2460714.500000000, A.D. 2025-Feb-08 00:00:00.0000, 3.758836136961010E+08, 3.160900361049563E+08, -5.134311806472826E+07,
$$EOE